{
  "type": "FeatureCollection",
  "features": [
    {
      "type": "Feature",
      "properties": {
        "norad_id": 37562,
        "name": "IRIDIUM 33 DEB",
        "group": "iridium-33-debris",
        "lat": 43.046742517626065,
        "lon": 49.76032778409442,
        "alt_km": 699.4936705777736,
        "timestamp": "2025-12-06T09:34:17.299997+00:00",
        "meta_object_name": "IRIDIUM 33 DEB",
        "meta_object_id": "1997-051XX",
        "meta_epoch": "2025-12-05T22:38:16.769760",
        "meta_mean_motion": 14.56376175,
        "meta_eccentricity": 0.00266622,
        "meta_inclination": 86.3751,
        "meta_ra_of_asc_node": 46.5643,
        "meta_arg_of_pericenter": 129.1222,
        "meta_mean_anomaly": 47.463,
        "meta_ephemeris_type": 0,
        "meta_classification_type": "U",
        "meta_norad_cat_id": 37562,
        "meta_element_set_no": 999,
        "meta_rev_at_epoch": 86229,
        "meta_bstar": 0.0018491974,
        "meta_mean_motion_dot": 8.263e-05,
        "meta_mean_motion_ddot": 0,
        "tle_line1": "1 37562U 97051XX  25339.94324965  .00008263  00000+0  18492-2 0  9993",
        "tle_line2": "2 37562  86.3751  46.5643 0026662 129.1222  47.4630 14.56376175862290"
      },
      "geometry": {
        "type": "Point",
        "coordinates": [
          49.76032778409442,
          43.046742517626065
        ]
      }
    },
    {
      "type": "Feature",
      "properties": {
        "norad_id": 37565,
        "name": "IRIDIUM 33 DEB",
        "group": "iridium-33-debris",
        "lat": -63.18328804360361,
        "lon": 5.086358325218851,
        "alt_km": 738.5446360174637,
        "timestamp": "2025-12-06T09:34:17.300007+00:00",
        "meta_object_name": "IRIDIUM 33 DEB",
        "meta_object_id": "1997-051YA",
        "meta_epoch": "2025-12-04T19:48:32.546880",
        "meta_mean_motion": 14.51466932,
        "meta_eccentricity": 0.0015217,
        "meta_inclination": 86.3499,
        "meta_ra_of_asc_node": 13.026,
        "meta_arg_of_pericenter": 107.0508,
        "meta_mean_anomaly": 253.2366,
        "meta_ephemeris_type": 0,
        "meta_classification_type": "U",
        "meta_norad_cat_id": 37565,
        "meta_element_set_no": 999,
        "meta_rev_at_epoch": 65722,
        "meta_bstar": 0.001129,
        "meta_mean_motion_dot": 4.535e-05,
        "meta_mean_motion_ddot": 0,
        "tle_line1": "1 37565U 97051YA  25338.82537670  .00004535  00000+0  11290-2 0  9998",
        "tle_line2": "2 37565  86.3499  13.0260 0015217 107.0508 253.2366 14.51466932657226"
      },
      "geometry": {
        "type": "Point",
        "coordinates": [
          5.086358325218851,
          -63.18328804360361
        ]
      }
    },
    {
      "type": "Feature",
      "properties": {
        "norad_id": 38017,
        "name": "IRIDIUM 33 DEB",
        "group": "iridium-33-debris",
        "lat": 83.94027198454042,
        "lon": -153.9861413113071,
        "alt_km": 672.2804787432906,
        "timestamp": "2025-12-06T09:34:17.300017+00:00",
        "meta_object_name": "IRIDIUM 33 DEB",
        "meta_object_id": "1997-051YD",
        "meta_epoch": "2025-12-01T06:29:11.103360",
        "meta_mean_motion": 14.48304289,
        "meta_eccentricity": 0.009214,
        "meta_inclination": 86.3439,
        "meta_ra_of_asc_node": 171.2047,
        "meta_arg_of_pericenter": 141.8586,
        "meta_mean_anomaly": 218.9187,
        "meta_ephemeris_type": 0,
        "meta_classification_type": "U",
        "meta_norad_cat_id": 38017,
        "meta_element_set_no": 999,
        "meta_rev_at_epoch": 61236,
        "meta_bstar": 0.0066574,
        "meta_mean_motion_dot": 0.00026341,
        "meta_mean_motion_ddot": 0,
        "tle_line1": "1 38017U 97051YD  25335.27026740  .00026341  00000+0  66574-2 0  9992",
        "tle_line2": "2 38017  86.3439 171.2047 0092140 141.8586 218.9187 14.48304289612362"
      },
      "geometry": {
        "type": "Point",
        "coordinates": [
          -153.9861413113071,
          83.94027198454042
        ]
      }
    },
    {
      "type": "Feature",
      "properties": {
        "norad_id": 38022,
        "name": "IRIDIUM 33 DEB",
        "group": "iridium-33-debris",
        "lat": 40.52606734794973,
        "lon": 22.41805720566842,
        "alt_km": 722.2308536302107,
        "timestamp": "2025-12-06T09:34:17.300028+00:00",
        "meta_object_name": "IRIDIUM 33 DEB",
        "meta_object_id": "1997-051YJ",
        "meta_epoch": "2025-12-03T09:43:50.752992",
        "meta_mean_motion": 14.41155819,
        "meta_eccentricity": 0.00470517,
        "meta_inclination": 86.2701,
        "meta_ra_of_asc_node": 20.531,
        "meta_arg_of_pericenter": 80.0356,
        "meta_mean_anomaly": 280.615,
        "meta_ephemeris_type": 0,
        "meta_classification_type": "U",
        "meta_norad_cat_id": 38022,
        "meta_element_set_no": 999,
        "meta_rev_at_epoch": 69059,
        "meta_bstar": 0.0013840286,
        "meta_mean_motion_dot": 4.54e-05,
        "meta_mean_motion_ddot": 0,
        "tle_line1": "1 38022U 97051YJ  25337.40544853  .00004540  00000+0  13840-2 0  9990",
        "tle_line2": "2 38022  86.2701  20.5310 0047051  80.0356 280.6150 14.41155819690591"
      },
      "geometry": {
        "type": "Point",
        "coordinates": [
          22.41805720566842,
          40.52606734794973
        ]
      }
    },
    {
      "type": "Feature",
      "properties": {
        "norad_id": 38028,
        "name": "IRIDIUM 33 DEB",
        "group": "iridium-33-debris",
        "lat": 71.13412280762442,
        "lon": 13.86131159132798,
        "alt_km": 723.8389164116234,
        "timestamp": "2025-12-06T09:34:17.300050+00:00",
        "meta_object_name": "IRIDIUM 33 DEB",
        "meta_object_id": "1997-051YQ",
        "meta_epoch": "2025-12-05T08:19:56.011584",
        "meta_mean_motion": 14.46161527,
        "meta_eccentricity": 0.00297993,
        "meta_inclination": 86.3272,
        "meta_ra_of_asc_node": 3.4836,
        "meta_arg_of_pericenter": 144.2247,
        "meta_mean_anomaly": 216.0959,
        "meta_ephemeris_type": 0,
        "meta_classification_type": "U",
        "meta_norad_cat_id": 38028,
        "meta_element_set_no": 999,
        "meta_rev_at_epoch": 65388,
        "meta_bstar": 0.00052415239,
        "meta_mean_motion_dot": 1.903e-05,
        "meta_mean_motion_ddot": 0,
        "tle_line1": "1 38028U 97051YQ  25339.34717606  .00001903  00000+0  52415-3 0  9991",
        "tle_line2": "2 38028  86.3272   3.4836 0029799 144.2247 216.0959 14.46161527653884"
      },
      "geometry": {
        "type": "Point",
        "coordinates": [
          13.86131159132798,
          71.13412280762442
        ]
      }
    },
    {
      "type": "Feature",
      "properties": {
        "norad_id": 38228,
        "name": "IRIDIUM 33 DEB",
        "group": "iridium-33-debris",
        "lat": 75.87193135779725,
        "lon": 66.08172357940138,
        "alt_km": 825.1594923511566,
        "timestamp": "2025-12-06T09:34:17.300062+00:00",
        "meta_object_name": "IRIDIUM 33 DEB",
        "meta_object_id": "1997-051ZC",
        "meta_epoch": "2025-12-05T11:24:42.525216",
        "meta_mean_motion": 14.27249684,
        "meta_eccentricity": 0.0063511,
        "meta_inclination": 86.2953,
        "meta_ra_of_asc_node": 51.5576,
        "meta_arg_of_pericenter": 213.0073,
        "meta_mean_anomaly": 162.7695,
        "meta_ephemeris_type": 0,
        "meta_classification_type": "U",
        "meta_norad_cat_id": 38228,
        "meta_element_set_no": 999,
        "meta_rev_at_epoch": 84678,
        "meta_bstar": 0.00063038661,
        "meta_mean_motion_dot": 1.592e-05,
        "meta_mean_motion_ddot": 0,
        "tle_line1": "1 38228U 97051ZC  25339.47549219  .00001592  00000+0  63039-3 0  9998",
        "tle_line2": "2 38228  86.2953  51.5576 0063511 213.0073 162.7695 14.27249684846785"
      },
      "geometry": {
        "type": "Point",
        "coordinates": [
          66.08172357940138,
          75.87193135779725
        ]
      }
    },
    {
      "type": "Feature",
      "properties": {
        "norad_id": 38241,
        "name": "IRIDIUM 33 DEB",
        "group": "iridium-33-debris",
        "lat": 86.31988298452987,
        "lon": 82.9658754518384,
        "alt_km": 698.5049403974808,
        "timestamp": "2025-12-06T09:34:17.300073+00:00",
        "meta_object_name": "IRIDIUM 33 DEB",
        "meta_object_id": "1997-051ZR",
        "meta_epoch": "2025-12-05T18:18:10.298016",
        "meta_mean_motion": 14.54799988,
        "meta_eccentricity": 0.00056722,
        "meta_inclination": 86.3224,
        "meta_ra_of_asc_node": 353.6772,
        "meta_arg_of_pericenter": 87.2865,
        "meta_mean_anomaly": 272.8992,
        "meta_ephemeris_type": 0,
        "meta_classification_type": "U",
        "meta_norad_cat_id": 38241,
        "meta_element_set_no": 999,
        "meta_rev_at_epoch": 60099,
        "meta_bstar": 0.0014749391,
        "meta_mean_motion_dot": 6.345e-05,
        "meta_mean_motion_ddot": 0,
        "tle_line1": "1 38241U 97051ZR  25339.76261919  .00006345  00000+0  14749-2 0  9997",
        "tle_line2": "2 38241  86.3224 353.6772 0005672  87.2865 272.8992 14.54799988600991"
      },
      "geometry": {
        "type": "Point",
        "coordinates": [
          82.9658754518384,
          86.31988298452987
        ]
      }
    }
  ]
}